$$SOE
2460154.500000000, A.D. 2023-Jul-29 00:00:00.0000, -3.933321493755265E+08, 8.956083284274880E+06, 1.108839844736744E+07,
2460161.500000000, A.D. 2023-Aug-05 00:00:00.0000, -3.922975149784940E+08, -1.196811501396698E+06, 1.172114391007907E+07,
2460168.500000000, A.D. 2023-Aug-12 00:00:00.0000, -3.909479302023866E+08, -1.134874878744593E+07, 1.234447841763685E+07,
2460175.500000000, A.D. 2023-Aug-19 00:00:00.0000, -3.892816644788852E+08, -2.149149641633981E+07, 1.295781257889288E+07,
2460182.500000000, A.D. 2023-Aug-26 00:00:00.0000, -3.872971077328598E+08, -3.161667513788842E+07, 1.356055092758205E+07,
2460189.500000000, A.D. 2023-Sep-02 00:00:00.0000, -3.849927771245582E+08, -4.171575309053013E+07, 1.415209176390363E+07,
2460196.500000000, A.D. 2023-Sep-09 00:00:00.0000, -3.823673243922373E+08, -5.178004040281685E+07, 1.473182700348777E+07,
2460203.500000000, A.D. 2023-Sep-16 00:00:00.0000, -3.794195436593616E+08, -6.180068399622545E+07, 1.529914201611760E+07,
2460210.500000000, A.D. 2023-Sep-23 00:00:00.0000, -3.761483793239402E+08, -7.176866232872550E+07, 1.585341544229760E+07,
2460217.500000000, A.D. 2023-Sep-30 00:00:00.0000, -3.725529344043960E+08, -8.167477891827267E+07, 1.639401911923897E+07,
2460224.500000000, A.D. 2023-Oct-07 00:00:00.0000, -3.686324817321056E+08, -9.150965522405693E+07, 1.692031829110920E+07,
2460231.500000000, A.D. 2023-Oct-14 00:00:00.0000, -3.643864769914486E+08, -1.012637262390096E+08, 1.743167174112837E+07,
2460238.500000000, A.D. 2023-Oct-21 00:00:00.0000, -3.598145704216101E+08, -1.109272372338212E+08, 1.792743168481758E+07,
2460245.500000000, A.D. 2023-Oct-28 00:00:00.0000, -3.549166186437038E+08, -1.204902394388690E+08, 1.840694374466803E+07,
2460252.500000000, A.D. 2023-Nov-04 00:00:00.0000, -3.496926979009009E+08, -1.299425854894000E+08, 1.886954706286151E+07,
2460259.500000000, A.D. 2023-Nov-11 00:00:00.0000, -3.441431185749258E+08, -1.392739252979386E+08, 1.931457449196532E+07,
2460266.500000000, A.D. 2023-Nov-18 00:00:00.0000, -3.382684408028626E+08, -1.484737024889021E+08, 1.974135284417803E+07,
2460273.500000000, A.D. 2023-Nov-25 00:00:00.0000, -3.320694911637915E+08, -1.575311514500619E+08, 2.014920320091406E+07,
2460280.500000000, A.D. 2023-Dec-02 00:00:00.0000, -3.255473804469596E+08, -1.664352950977714E+08, 2.053744128629947E+07,
2460287.500000000, A.D. 2023-Dec-09 00:00:00.0000, -3.187035224611916E+08, -1.751749435104991E+08, 2.090537790012374E+07,
2460294.500000000, A.D. 2023-Dec-16 00:00:00.0000, -3.115396536328929E+08, -1.837386935242743E+08, 2.125231939290282E+07,
2460301.500000000, A.D. 2023-Dec-23 00:00:00.0000, -3.040578530753561E+08, -1.921149287196798E+08, 2.157756821582396E+07,
2460308.500000000, A.D. 2023-Dec-30 00:00:00.0000, -2.962605644952744E+08, -2.002918188797362E+08, 2.188042376329519E+07,
2460315.500000000, A.D. 2024-Jan-06 00:00:00.0000, -2.881506217287550E+08, -2.082573214214666E+08, 2.216018348731374E+07,
2460322.500000000, A.D. 2024-Jan-13 00:00:00.0000, -2.797312747496026E+08, -2.159991867638798E+08, 2.241614385551462E+07,
2460329.500000000, A.D. 2024-Jan-20 00:00:00.0000, -2.710062149329671E+08, -2.235049647126627E+08, 2.264760130427140E+07,
2460336.500000000, A.D. 2024-Jan-27 00:00:00.0000, -2.619796015919632E+08, -2.307620113819305E+08, 2.285385343774420E+07,
2460343.500000000, A.D. 2024-Feb-03 00:00:00.0000, -2.526560901823428E+08, -2.377574977878897E+08, 2.303420044538847E+07,
2460350.500000000, A.D. 2024-Feb-10 00:00:00.0000, -2.430408618446750E+08, -2.444784206133756E+08, 2.318794669912387E+07,
2460357.500000000, A.D. 2024-Feb-17 00:00:00.0000, -2.331396540780485E+08, -2.509116153662077E+08, 2.331440252962627E+07,
2460364.500000000, A.D. 2024-Feb-24 00:00:00.0000, -2.229587924280105E+08, -2.570437721632948E+08, 2.341288619290259E+07,
2460371.500000000, A.D. 2024-Mar-02 00:00:00.0000, -2.125052230557773E+08, -2.628614544281734E+08, 2.348272603590252E+07,
2460378.500000000, A.D. 2024-Mar-09 00:00:00.0000, -2.017865459144920E+08, -2.683511208262131E+08, 2.352326285708946E+07,
2460385.500000000, A.D. 2024-Mar-16 00:00:00.0000, -1.908110479638477E+08, -2.734991505083170E+08, 2.353385245472501E+07,
2460392.500000000, A.D. 2024-Mar-23 00:00:00.0000, -1.795877363116784E+08, -2.782918708279884E+08, 2.351386847473247E+07,
2460399.500000000, A.D. 2024-Mar-30 00:00:00.0000, -1.681263732631530E+08, -2.827155878353810E+08, 2.346270577171220E+07,
2460406.500000000, A.D. 2024-Apr-06 00:00:00.0000, -1.564375127125257E+08, -2.867566231941369E+08, 2.337978399292636E+07,
2460413.500000000, A.D. 2024-Apr-13 00:00:00.0000, -1.445325339681813E+08, -2.904013569605416E+08, 2.326455113509901E+07,
2460420.500000000, A.D. 2024-Apr-20 00:00:00.0000, -1.324236735514250E+08, -2.936362738110406E+08, 2.311648738540694E+07,
2460427.500000000, A.D. 2024-Apr-27 00:00:00.0000, -1.201240560145955E+08, -2.964480135191330E+08, 2.293510934209275E+07,
2460434.500000000, A.D. 2024-May-04 00:00:00.0000, -1.076477231562197E+08, -2.988234265933678E+08, 2.271997454728197E+07,
2460441.500000000, A.D. 2024-May-11 00:00:00.0000, -9.500966079487602E+07, -3.007496353458117E+08, 2.247068629497543E+07,
2460448.500000000, A.D. 2024-May-18 00:00:00.0000, -8.222582235362865E+07, -3.022141004872432E+08, 2.218689869622338E+07,
2460455.500000000, A.D. 2024-May-25 00:00:00.0000, -6.931314850189903E+07, -3.032046933127246E+08, 2.186832198105639E+07,
2460462.500000000, A.D. 2024-Jun-01 00:00:00.0000, -5.628958200902109E+07, -3.037097735126089E+08, 2.151472800308044E+07,
2460469.500000000, A.D. 2024-Jun-08 00:00:00.0000, -4.317407672347554E+07, -3.037182725119767E+08, 2.112595589011650E+07,
2460476.500000000, A.D. 2024-Jun-15 00:00:00.0000, -2.998659939111413E+07, -3.032197815592124E+08, 2.070191780696291E+07,
2460483.500000000, A.D. 2024-Jun-22 00:00:00.0000, -1.674812439301601E+07, -3.022046430236905E+08, 2.024260496621281E+07,
2460490.500000000, A.D. 2024-Jun-29 00:00:00.0000, -3.480622575170240E+06, -3.006640462125015E+08, 1.974809386968428E+07,
2460497.500000000, A.D. 2024-Jul-06 00:00:00.0000, 9.792959431446144E+06, -2.985901295135729E+08, 1.921855226277602E+07,
2460504.500000000, A.D. 2024-Jul-13 00:00:00.0000, 2.304873228481230E+07, -2.959760852191008E+08, 1.865424477250929E+07,
2460511.500000000, A.D. 2024-Jul-20 00:00:00.0000, 3.626190829571567E+07, -2.928162648867532E+08, 1.805553841574237E+07,
2460518.500000000, A.D. 2024-Jul-27 00:00:00.0000, 4.940685722117572E+07, -2.891062850223003E+08, 1.742290786076124E+07,
2460525.500000000, A.D. 2024-Aug-03 00:00:00.0000, 6.245717443513452E+07, -2.848431320988649E+08, 1.675694027922159E+07,
2460532.500000000, A.D. 2024-Aug-10 00:00:00.0000, 7.538576215908062E+07, -2.800252653772433E+08, 1.605833965751530E+07,
2460539.500000000, A.D. 2024-Aug-17 00:00:00.0000, 8.816492412222008E+07, -2.746527157968960E+08, 1.532793044306058E+07,
2460546.500000000, A.D. 2024-Aug-24 00:00:00.0000, 1.007664737720073E+08, -2.687271791068394E+08, 1.456666039576973E+07,
2460553.500000000, A.D. 2024-Aug-31 00:00:00.0000, 1.131618559781051E+08, -2.622521013393491E+08, 1.377560250550991E+07,
2460560.500000000, A.D. 2024-Sep-07 00:00:00.0000, 1.253222821187281E+08, -2.552327544797753E+08, 1.295595583500819E+07,
2460567.500000000, A.D. 2024-Sep-14 00:00:00.0000, 1.372188778239578E+08, -2.476762992995740E+08, 1.210904525313203E+07,
2460574.500000000, A.D. 2024-Sep-21 00:00:00.0000, 1.488228401853302E+08, -2.395918329397606E+08, 1.123632018167104E+07,
2460581.500000000, A.D. 2024-Sep-28 00:00:00.0000, 1.601056024260649E+08, -2.309904225720215E+08, 1.033935205642486E+07,
2460588.500000000, A.D. 2024-Oct-05 00:00:00.0000, 1.710390078373538E+08, -2.218851234106675E+08, 9.419830108391479E+06,
2460595.500000000, A.D. 2024-Oct-12 00:00:00.0000, 1.815954904293125E+08, -2.122909766233480E+08, 8.479555711381182E+06,
2460602.500000000, A.D. 2024-Oct-19 00:00:00.0000, 1.917482580599270E+08, -2.022249862580267E+08, 7.520435434147894E+06,
2460609.500000000, A.D. 2024-Oct-26 00:00:00.0000, 2.014714752785503E+08, -1.917060752136981E+08, 6.544472765822865E+06,
2460616.500000000, A.D. 2024-Nov-02 00:00:00.0000, 2.107404432274860E+08, -1.807550200614702E+08, 5.553758542734124E+06,
2460623.500000000, A.D. 2024-Nov-09 00:00:00.0000, 2.195317736770483E+08, -1.693943648199682E+08, 4.550460164908178E+06,
2460630.500000000, A.D. 2024-Nov-16 00:00:00.0000, 2.278235541854808E+08, -1.576483142916248E+08, 3.536809725789696E+06,
2460637.500000000, A.D. 2024-Nov-23 00:00:00.0000, 2.355955014926764E+08, -1.455426081051235E+08, 2.515091202772215E+06,
2460644.500000000, A.D. 2024-Nov-30 00:00:00.0000, 2.428291006227434E+08, -1.331043770886912E+08, 1.487626871396698E+06,
2460651.500000000, A.D. 2024-Dec-07 00:00:00.0000, 2.495077276790439E+08, -1.203619836038327E+08, 4.567631508690044E+05,
2460658.500000000, A.D. 2024-Dec-14 00:00:00.0000, 2.556167535699611E+08, -1.073448470868238E+08, -5.751437270506099E+05,
2460665.500000000, A.D. 2024-Dec-21 00:00:00.0000, 2.611436246798800E+08, -9.408325883727409E+07, -1.605741881675445E+06,
2460672.500000000, A.D. 2024-Dec-28 00:00:00.0000, 2.660779212517383E+08, -8.060819203302911E+07, -2.632697973424077E+06,
2460679.500000000, A.D. 2025-Jan-04 00:00:00.0000, 2.704113953914340E+08, -6.695110773034436E+07, -3.653711240794595E+06,
2460686.500000000, A.D. 2025-Jan-11 00:00:00.0000, 2.741379867254066E+08, -5.314375836469877E+07, -4.666526869803552E+06,
2460693.500000000, A.D. 2025-Jan-18 00:00:00.0000, 2.772538151689143E+08, -3.921799278925734E+07, -5.668948494018339E+06,
2460700.500000000, A.D. 2025-Jan-25 00:00:00.0000, 2.797571519112005E+08, -2.520556629097915E+07, -6.658849717913019E+06,
2460707.500000000, A.D. 2025-Feb-01 00:00:00.0000, 2.816483701103063E+08, -1.113795834382370E+07, -7.634184543429898E+06,
2460714.500000000, A.D. 2025-Feb-08 00:00:00.0000, 2.829298770376348E+08, 2.953799496511160E+06, -8.592996594631869E+06,
2460721.500000000, A.D. 2025-Feb-15 00:00:00.0000, 2.836060296889166E+08, 1.703928347019885E+07, -9.533427068291038E+06,
$$EOE